[{"OBJECT_NAME":"IRIDIUM 115","OBJECT_ID":"2017-039D","EPOCH":"2026-03-09T21:44:50.536608","MEAN_MOTION":14.43281411,"ECCENTRICITY":0.00018282,"INCLINATION":86.4554,"RA_OF_ASC_NODE":3.5706,"ARG_OF_PERICENTER":89.0887,"MEAN_ANOMALY":271.0524,"EPHEMERIS_TYPE":0,"CLASSIFICATION_TYPE":"U","NORAD_CAT_ID":42806,"ELEMENT_SET_NO":999,"REV_AT_EPOCH":45994,"BSTAR":0.00015631105,"MEAN_MOTION_DOT":5.46e-6,"MEAN_MOTION_DDOT":0},{"OBJECT_NAME":"NOAA 16 DEB","OBJECT_ID":"2000-055GV","EPOCH":"2026-03-06T06:08:12.294240","MEAN_MOTION":14.40730965,"ECCENTRICITY":0.00236821,"INCLINATION":98.8873,"RA_OF_ASC_NODE":169.9182,"ARG_OF_PERICENTER":138.4152,"MEAN_ANOMALY":221.8842,"EPHEMERIS_TYPE":0,"CLASSIFICATION_TYPE":"U","NORAD_CAT_ID":41293,"ELEMENT_SET_NO":999,"REV_AT_EPOCH":52596,"BSTAR":0.004230597,"MEAN_MOTION_DOT":0.00013548,"MEAN_MOTION_DDOT":0}]
